MEASAT 3D               
1 52904U 22067B   26063.16641990 -.00000254  00000+0  00000+0 0  9990
2 52904   0.0602 305.3972 0003153  22.7856 345.1288  1.00271003 13594
SES-22                  
1 52933U 22071A   26062.98685009  .00000000  00000+0  00000+0 0  9993
2 52933   0.0190 169.5566 0001017 182.6973  25.7930  1.00273741  6464
WFOV (USA 332)          
1 52940U 22073A   26062.97405631 -.00000374  00000+0  00000+0 0  9998
2 52940   3.4411  79.8885 0001704 215.7923 335.9357  1.00276320 13315
TIANLIAN 2-03           
1 53100U 22078A   26063.15904104  .00000059  00000+0  00000+0 0  9991
2 53100   0.4040  73.0124 0003358 252.5177 264.2193  1.00271980 13496
SBIRS GEO-6 (USA 336)   
1 53355U 22092A   26063.09173216 -.00000306  00000+0  00000+0 0  9990
2 53355   3.4381 315.8302 0002309  21.2989 356.7154  1.00271672 13189
EUTELSAT KONNECT VHTS   
1 53765U 22110A   26062.94360319  .00000005  00000+0  00000+0 0  9996
2 53765   0.0576 103.9798 0003432 210.7850 189.3183  1.00281471  5785
ZHONGXING-1E            
1 53813U 22112A   26063.17197498 -.00000161  00000+0  00000+0 0  9998
2 53813   0.0201 116.5156 0003392 186.6498   2.0144  1.00269686 12797
SES-20                  
1 53960U 22123A   26063.02530826 -.00000114  00000+0  00000+0 0  9991
2 53960   0.0167 105.8069 0001428 319.3827   2.5712  1.00270678 12478
SES-21                  
1 53961U 22123B   26062.91323525  .00000056  00000+0  00000+0 0  9999
2 53961   0.0282  64.9709 0001123 288.3133   6.1492  1.00274058  6159
GALAXY 33 (G-33)        
1 54026U 22128A   26063.13061422  .00000000  00000+0  00000+0 0  9996
2 54026   0.0180 168.7038 0001915 172.7127  94.5150  1.00273446 12682
GALAXY 34 (G-34)        
1 54027U 22128B   26063.13148090  .00000046  00000+0  00000+0 0  9994
2 54027   0.0110 135.8392 0001372 210.4055  93.9736  1.00272922 12851
ANGOSAT 2               
1 54033U 22131A   26063.16155439  .00000123  00000+0  00000+0 0  9999
2 54033   0.0111 145.4428 0000558 297.2504 160.3690  1.00273854 12429
EUTELSAT HOTBIRD 13F    
1 54048U 22134A   26063.05739267  .00000074  00000+0  00000+0 0  9998
2 54048   0.0579 296.5026 0002095  61.1445 197.8064  1.00272044 12324
LDPE-2                  
1 54219U 22144A   26062.96344998 -.00000359  00000+0  00000+0 0  9998
2 54219   5.3873  64.3101 0000549 225.4346 321.5911  1.00558122 10780
EUTELSAT HOTBIRD 13G    
1 54225U 22146A   26063.15956104  .00000074  00000+0  00000+0 0  9990
2 54225   0.0479 231.0058 0001927 312.9447  48.3914  1.00271900  6418
ZHONGXING-19            
1 54230U 22148A   26063.19072549 -.00000094  00000+0  00000+0 0  9997
2 54230   0.0180 103.9402 0002608 236.4950  53.3711  1.00271471 12320
GALAXY 31 (G-31)        
1 54243U 22153A   26063.13304090  .00000001  00000+0  00000+0 0  9997
2 54243   0.0142 195.2478 0001497 157.1848  96.3339  1.00272403  6073
